<?xml version="1.0" encoding="UTF-8"?>
<ndm xmlns:xsi="http://www.w3.org/2001/XMLSchema-instance" xsi:noNamespaceSchemaLocation="https://sanaregistry.org/r/ndmxml_unqualified/ndmxml-2.0.0-master-2.0.xsd">
<omm id="CCSDS_OMM_VERS" version="2.0">
<header><CREATION_DATE/><ORIGINATOR/></header><body><segment><metadata><OBJECT_NAME>ORBCOMM FM24</OBJECT_NAME><OBJECT_ID>1998-053D</OBJECT_ID><CENTER_NAME>EARTH</CENTER_NAME><REF_FRAME>TEME</REF_FRAME><TIME_SYSTEM>UTC</TIME_SYSTEM><MEAN_ELEMENT_THEORY>SGP4</MEAN_ELEMENT_THEORY></metadata><data><meanElements><EPOCH>2024-07-31T12:21:45.262944</EPOCH><MEAN_MOTION>14.36023036</MEAN_MOTION><ECCENTRICITY>.0000778</ECCENTRICITY><INCLINATION>45.0095</INCLINATION><RA_OF_ASC_NODE>347.4062</RA_OF_ASC_NODE><ARG_OF_PERICENTER>168.1618</ARG_OF_PERICENTER><MEAN_ANOMALY>191.9248</MEAN_ANOMALY></meanElements><tleParameters><EPHEMERIS_TYPE>0</EPHEMERIS_TYPE><CLASSIFICATION_TYPE>U</CLASSIFICATION_TYPE><NORAD_CAT_ID>25478</NORAD_CAT_ID><ELEMENT_SET_NO>999</ELEMENT_SET_NO><REV_AT_EPOCH>35131</REV_AT_EPOCH><BSTAR>.81363E-3</BSTAR><MEAN_MOTION_DOT>.2246E-4</MEAN_MOTION_DOT><MEAN_MOTION_DDOT>0</MEAN_MOTION_DDOT></tleParameters></data></segment></body></omm>
<omm id="CCSDS_OMM_VERS" version="2.0">
<header><CREATION_DATE/><ORIGINATOR/></header><body><segment><metadata><OBJECT_NAME>ORBCOMM FM25</OBJECT_NAME><OBJECT_ID>1998-053E</OBJECT_ID><CENTER_NAME>EARTH</CENTER_NAME><REF_FRAME>TEME</REF_FRAME><TIME_SYSTEM>UTC</TIME_SYSTEM><MEAN_ELEMENT_THEORY>SGP4</MEAN_ELEMENT_THEORY></metadata><data><meanElements><EPOCH>2024-07-31T14:55:09.548256</EPOCH><MEAN_MOTION>14.36008442</MEAN_MOTION><ECCENTRICITY>.0002778</ECCENTRICITY><INCLINATION>45.0094</INCLINATION><RA_OF_ASC_NODE>345.1531</RA_OF_ASC_NODE><ARG_OF_PERICENTER>104.7526</ARG_OF_PERICENTER><MEAN_ANOMALY>255.3630</MEAN_ANOMALY></meanElements><tleParameters><EPHEMERIS_TYPE>0</EPHEMERIS_TYPE><CLASSIFICATION_TYPE>U</CLASSIFICATION_TYPE><NORAD_CAT_ID>25479</NORAD_CAT_ID><ELEMENT_SET_NO>999</ELEMENT_SET_NO><REV_AT_EPOCH>35162</REV_AT_EPOCH><BSTAR>.72368E-3</BSTAR><MEAN_MOTION_DOT>.1981E-4</MEAN_MOTION_DOT><MEAN_MOTION_DDOT>0</MEAN_MOTION_DDOT></tleParameters></data></segment></body></omm>
<omm id="CCSDS_OMM_VERS" version="2.0">
<header><CREATION_DATE/><ORIGINATOR/></header><body><segment><metadata><OBJECT_NAME>ORBCOMM FM26</OBJECT_NAME><OBJECT_ID>1998-053F</OBJECT_ID><CENTER_NAME>EARTH</CENTER_NAME><REF_FRAME>TEME</REF_FRAME><TIME_SYSTEM>UTC</TIME_SYSTEM><MEAN_ELEMENT_THEORY>SGP4</MEAN_ELEMENT_THEORY></metadata><data><meanElements><EPOCH>2024-07-31T12:32:02.037984</EPOCH><MEAN_MOTION>14.35397516</MEAN_MOTION><ECCENTRICITY>.0005205</ECCENTRICITY><INCLINATION>45.0090</INCLINATION><RA_OF_ASC_NODE>340.1038</RA_OF_ASC_NODE><ARG_OF_PERICENTER>117.2885</ARG_OF_PERICENTER><MEAN_ANOMALY>242.8493</MEAN_ANOMALY></meanElements><tleParameters><EPHEMERIS_TYPE>0</EPHEMERIS_TYPE><CLASSIFICATION_TYPE>U</CLASSIFICATION_TYPE><NORAD_CAT_ID>25480</NORAD_CAT_ID><ELEMENT_SET_NO>999</ELEMENT_SET_NO><REV_AT_EPOCH>35154</REV_AT_EPOCH><BSTAR>.61778E-3</BSTAR><MEAN_MOTION_DOT>.1649E-4</MEAN_MOTION_DOT><MEAN_MOTION_DDOT>0</MEAN_MOTION_DDOT></tleParameters></data></segment></body></omm>
<omm id="CCSDS_OMM_VERS" version="2.0">
<header><CREATION_DATE/><ORIGINATOR/></header><body><segment><metadata><OBJECT_NAME>ORBCOMM FM30</OBJECT_NAME><OBJECT_ID>1999-065A</OBJECT_ID><CENTER_NAME>EARTH</CENTER_NAME><REF_FRAME>TEME</REF_FRAME><TIME_SYSTEM>UTC</TIME_SYSTEM><MEAN_ELEMENT_THEORY>SGP4</MEAN_ELEMENT_THEORY></metadata><data><meanElements><EPOCH>2024-07-31T13:06:21.048480</EPOCH><MEAN_MOTION>14.35526138</MEAN_MOTION><ECCENTRICITY>.000529</ECCENTRICITY><INCLINATION>45.0311</INCLINATION><RA_OF_ASC_NODE>165.6001</RA_OF_ASC_NODE><ARG_OF_PERICENTER>218.4517</ARG_OF_PERICENTER><MEAN_ANOMALY>141.5954</MEAN_ANOMALY></meanElements><tleParameters><EPHEMERIS_TYPE>0</EPHEMERIS_TYPE><CLASSIFICATION_TYPE>U</CLASSIFICATION_TYPE><NORAD_CAT_ID>25980</NORAD_CAT_ID><ELEMENT_SET_NO>999</ELEMENT_SET_NO><REV_AT_EPOCH>28834</REV_AT_EPOCH><BSTAR>.66555E-3</BSTAR><MEAN_MOTION_DOT>.1792E-4</MEAN_MOTION_DOT><MEAN_MOTION_DDOT>0</MEAN_MOTION_DDOT></tleParameters></data></segment></body></omm>
<omm id="CCSDS_OMM_VERS" version="2.0">
<header><CREATION_DATE/><ORIGINATOR/></header><body><segment><metadata><OBJECT_NAME>ORBCOMM FM31</OBJECT_NAME><OBJECT_ID>1999-065B</OBJECT_ID><CENTER_NAME>EARTH</CENTER_NAME><REF_FRAME>TEME</REF_FRAME><TIME_SYSTEM>UTC</TIME_SYSTEM><MEAN_ELEMENT_THEORY>SGP4</MEAN_ELEMENT_THEORY></metadata><data><meanElements><EPOCH>2024-07-31T13:57:21.879936</EPOCH><MEAN_MOTION>14.35516395</MEAN_MOTION><ECCENTRICITY>.0003445</ECCENTRICITY><INCLINATION>45.0226</INCLINATION><RA_OF_ASC_NODE>159.0694</RA_OF_ASC_NODE><ARG_OF_PERICENTER>256.5939</ARG_OF_PERICENTER><MEAN_ANOMALY>103.4525</MEAN_ANOMALY></meanElements><tleParameters><EPHEMERIS_TYPE>0</EPHEMERIS_TYPE><CLASSIFICATION_TYPE>U</CLASSIFICATION_TYPE><NORAD_CAT_ID>25981</NORAD_CAT_ID><ELEMENT_SET_NO>999</ELEMENT_SET_NO><REV_AT_EPOCH>28790</REV_AT_EPOCH><BSTAR>.65358E-3</BSTAR><MEAN_MOTION_DOT>.1757E-4</MEAN_MOTION_DOT><MEAN_MOTION_DDOT>0</MEAN_MOTION_DDOT></tleParameters></data></segment></body></omm>
<omm id="CCSDS_OMM_VERS" version="2.0">
<header><CREATION_DATE/><ORIGINATOR/></header><body><segment><metadata><OBJECT_NAME>ORBCOMM FM32</OBJECT_NAME><OBJECT_ID>1999-065C</OBJECT_ID><CENTER_NAME>EARTH</CENTER_NAME><REF_FRAME>TEME</REF_FRAME><TIME_SYSTEM>UTC</TIME_SYSTEM><MEAN_ELEMENT_THEORY>SGP4</MEAN_ELEMENT_THEORY></metadata><data><meanElements><EPOCH>2024-07-31T09:52:07.832064</EPOCH><MEAN_MOTION>14.34527043</MEAN_MOTION><ECCENTRICITY>.000577</ECCENTRICITY><INCLINATION>45.0152</INCLINATION><RA_OF_ASC_NODE>174.2577</RA_OF_ASC_NODE><ARG_OF_PERICENTER>247.3824</ARG_OF_PERICENTER><MEAN_ANOMALY>112.6413</MEAN_ANOMALY></meanElements><tleParameters><EPHEMERIS_TYPE>0</EPHEMERIS_TYPE><CLASSIFICATION_TYPE>U</CLASSIFICATION_TYPE><NORAD_CAT_ID>25982</NORAD_CAT_ID><ELEMENT_SET_NO>999</ELEMENT_SET_NO><REV_AT_EPOCH>28850</REV_AT_EPOCH><BSTAR>.80953E-3</BSTAR><MEAN_MOTION_DOT>.2164E-4</MEAN_MOTION_DOT><MEAN_MOTION_DDOT>0</MEAN_MOTION_DDOT></tleParameters></data></segment></body></omm>

</ndm>
