ORBCOMM FM24            
1 25478U 98053D   24213.51510721  .00002246  00000+0  81363-3 0  9992
2 25478  45.0095 347.4062 0000778 168.1618 191.9248 14.36023036351315
ORBCOMM FM25            
1 25479U 98053E   24213.62163829  .00001981  00000+0  72368-3 0  9998
2 25479  45.0094 345.1531 0002778 104.7526 255.3630 14.36008442351625
ORBCOMM FM26            
1 25480U 98053F   24213.52224581  .00001649  00000+0  61778-3 0  9996
2 25480  45.0090 340.1038 0005205 117.2885 242.8493 14.35397516351546
ORBCOMM FM30            
1 25980U 99065A   24213.54607695  .00001792  00000+0  66555-3 0  9995
2 25980  45.0311 165.6001 0005290 218.4517 141.5954 14.35526138288345
ORBCOMM FM31            
1 25981U 99065B   24213.58150324  .00001757  00000+0  65358-3 0  9993
2 25981  45.0226 159.0694 0003445 256.5939 103.4525 14.35516395287903
ORBCOMM FM32            
1 25982U 99065C   24213.41120176  .00002164  00000+0  80953-3 0  9999
2 25982  45.0152 174.2577 0005770 247.3824 112.6413 14.34527043288501
